IRIDIUM 7               
1 24793U 97020B   25105.80841989  .00000810  00000+0  27296-3 0  9990
2 24793  86.4025 203.0171 0002018  89.7992 270.3436 14.35885370462945
IRIDIUM 4               
1 24796U 97020E   25105.76143587  .00000664  00000+0  21859-3 0  9993
2 24796  86.4024 199.9589 0002243  92.4778 267.6676 14.36790898463505
IRIDIUM 914             
1 24836U 97030A   25105.79980535  .00001001  00000+0  30673-3 0  9994
2 24836  86.3995 208.7249 0003704  82.8247 277.3374 14.40807312598142
IRIDIUM 16              
1 24841U 97030F   25105.87495080  .00001025  00000+0  32831-3 0  9999
2 24841  86.4050 231.4301 0000195 220.3128 139.8056 14.38649308458040
IRIDIUM 17              
1 24870U 97034B   25105.89329344  .00001045  00000+0  34095-3 0  9992
2 24870  86.3916 260.9476 0001723 142.3872 217.7446 14.37755873454633
